SENTINEL-6              
1 46984U 20086A   24064.45372182 -.00000042  00000+0  82611-4 0  9993
2 46984  66.0400  68.8006 0007881 270.9547  89.0565 12.80928928153411
